IRIDIUM 112             
1 41925U 17003J   25046.42835872  .00000279  00000+0  92676-4 0  9999
2 41925  86.3950 291.7037 0001933  88.7786 271.3631 14.34217844423508
IRIDIUM 111             
1 41926U 17003K   25046.62497995 -.00000103  00000+0 -43889-4 0  9992
2 41926  86.3951 291.6812 0002191  84.2035 275.9411 14.34217137423517
IRIDIUM 113             
1 42803U 17039A   25046.60494437  .00000319  00000+0  10685-3 0  9996
2 42803  86.4040 165.5335 0001834 109.6760 250.4634 14.34217477401441
IRIDIUM 123             
1 42804U 17039B   25046.50688247  .00000623  00000+0  21552-3 0  9993
2 42804  86.4009 196.9932 0002286  93.7006 266.4451 14.34216660400194
IRIDIUM 120             
1 42805U 17039C   25046.59859926  .00000203  00000+0  65495-4 0  9996
2 42805  86.4031 165.3823 0002361  90.4073 269.7394 14.34219635401436
IRIDIUM 115             
1 42806U 17039D   25046.55475879  .00000875  00000+0  25409-3 0  9999
2 42806  86.4568 165.4615 0002699  97.6770 262.4737 14.43285810404071
IRIDIUM 118             
1 42807U 17039E   25046.46882600  .00000528  00000+0  18152-3 0  9996
2 42807  86.4005 197.0091 0001991  95.3424 264.7999 14.34214002400180
IRIDIUM 117             
1 42808U 17039F   25046.48785927 -.00000045  00000+0 -23036-4 0  9997
2 42808  86.4009 196.9638 0002255  96.0648 264.0805 14.34217039400216
